0 FENGYUN 1C DEB
1 30512U 99025AJA 13281.53937985  .00005318  00000-0  59538-3 0  7662
2 30512 098.8434 122.1360 0195501 285.4986 127.7139 14.74491439357907
0 FENGYUN 1C DEB
1 30512U 99025AJA 13282.83110021  .00007180  00000-0  80059-3 0  7672
2 30512 098.8439 123.5470 0195346 281.4491 144.4051 14.74505972358091
0 FENGYUN 1C DEB
1 30512U 99025AJA 13285.54305263  .00004749  00000-0  53264-3 0  7695
2 30512 098.8441 126.5090 0195268 272.9056 140.1686 14.74522734358496
0 FENGYUN 1C DEB
1 30512U 99025AJA 13287.05484023  .00004866  00000-0  54563-3 0  7700
2 30512 098.8436 128.1600 0195119 268.1435 245.2296 14.74537068358724
0 FENGYUN 1C DEB
1 30512U 99025AJA 13288.06837315  .00007825  00000-0  87110-3 0  7711
2 30512 098.8426 129.2672 0195133 264.8989 225.5047 14.74555968358877
0 FENGYUN 1C DEB
1 30512U 99025AJA 13289.35717712  .00008315  00000-0  92451-3 0  7722
2 30512 098.8424 130.6750 0195136 260.8704 227.0568 14.74577134359068
0 FENGYUN 1C DEB
1 30512U 99025AJA 13291.51603625  .00009347  00000-0  10373-2 0  7739
2 30512 098.8420 133.0328 0195031 254.0680 167.5037 14.74614239359386
0 FENGYUN 1C DEB
1 30512U 99025AJA 13292.52747456  .00009012  00000-0  10000-2 0  7749
2 30512 098.8417 134.1377 0195031 250.8799 136.8965 14.74633677359536
0 FENGYUN 1C DEB
1 30512U 99025AJA 13293.55030965  .00010955  00000-0  12129-2 0  7756
2 30512 098.8417 135.2549 0194999 247.6560 166.8610 14.74648957359684
0 FENGYUN 1C DEB
1 30512U 99025AJA 13295.12539001  .00012277  00000-0  13572-2 0  7769
2 30512 098.8421 136.9752 0194942 242.6911 248.6730 14.74678539359913
